STARLINK-11102 [DTC]    
1 60065U 24113G   24195.75174951  .00145338  00000+0  87202-3 0  9993
2 60065  53.1652 289.3345 0002999 232.6998 127.3750 15.76851940  4884
STARLINK-11141 [DTC]    
1 60066U 24113H   24195.74686638  .00134180  00000+0  80759-3 0  9996
2 60066  53.1655 289.3026 0001192 298.4268  61.6633 15.76822708  5003
STARLINK-11153 [DTC]    
1 60067U 24113J   24195.67860068  .00210960  00000+0  12570-2 0  9996
2 60067  53.1651 289.5869 0002146 309.9532  50.1300 15.76803987  4987
STARLINK-11170 [DTC]    
1 60068U 24113K   24195.48357055  .00090972  00000+0  55336-3 0  9990
2 60068  53.1661 290.5010 0000902  51.6144 308.4958 15.76750907  4652
STARLINK-11171 [DTC]    
1 60069U 24113L   24195.91667824 -.00180607  00000+0 -11181-2 0  9993
2 60069  53.1652 288.2873 0001509 188.1674 139.4794 15.76826576  5020
STARLINK-11186 [DTC]    
1 60070U 24113M   24195.50002315 -.00169275  00000+0 -10457-2 0  9991
2 60070  53.1654 290.3062 0001459  13.1262 135.8336 15.76839779  5067
STARLINK-11184 [DTC]    
1 60071U 24113N   24195.84751142 -.00330959  00000+0 -18514-2 0  9999
2 60071  53.1659 288.4961 0001979  49.0363 311.0830 15.79496387  4968
STARLINK-32117          
1 60076U 24113T   24195.71729326  .06659822  12514-4  46267-3 0  9991
2 60076  53.1583 285.0584 0013811 331.0644 168.4610 16.39991776  4742
STARLINK-32032          
1 60077U 24113U   24194.93257318  .00023065  00000+0  58465-3 0  9995
2 60077  53.1591 295.6319 0001163  94.5043 265.6095 15.39631013  4534
KINEIS-1B               
1 60079U 24114A   24195.81108598  .00003345  00000+0  47384-3 0  9998
2 60079  98.0287 211.4924 0002487 174.0887 186.0353 14.77718709  3401
KINEIS-1C               
1 60081U 24114C   24195.75259481  .00002831  00000+0  40781-3 0  9995
2 60081  98.0288 211.4124 0000784  74.3347 285.7949 14.77119930  3384
KINEIS-1D               
1 60082U 24114D   24195.61582516  .00002838  00000+0  40793-3 0  9999
2 60082  98.0287 211.2795 0000343 102.9217 257.2031 14.77210050  3360
KINEIS-1E               
1 60083U 24114E   24195.61450829  .00002777  00000+0  39856-3 0  9991
2 60083  98.0287 211.2815 0001439 124.5387 235.5959 14.77287834  3361
KINEIS-1A               
1 60084U 24114F   24195.60991106  .00002779  00000+0  39653-3 0  9996
2 60084  98.0290 211.2877 0001720 190.5230 169.5945 14.77543828  3366
ELECTRON KICK STAGE R/B 
1 60085U 24114G   24195.76083589  .00007901  00000+0  61019-3 0  9994
2 60085  98.0266 212.2016 0091223 318.1270  41.2998 14.98547719  3433
ASTRA 1P                
1 60086U 24115A   24194.91692130 -.00000171  00000+0  00000+0 0  9992
2 60086  22.3549  60.1979 7616360 184.3919 176.5976  1.22077150    10
FALCON 9 R/B            
1 60087U 24115B   24195.53241754  .00000304  00000+0  12713-2 0  9998
2 60087  28.0637  59.8642 7976499 185.6126 150.3240  1.43359122   334
CATCH-1                 
1 60088U 24116A   24195.78972529  .00002089  00000+0  25518-3 0  9998
2 60088  28.9941 232.3678 0004766  92.0320 268.0818 14.79904476  3150
SVOM                    
1 60089U 24116B   24195.79337624  .00002019  00000+0  24760-3 0  9992
2 60089  28.9942 232.3977 0005831  79.7643 280.3607 14.79645075  3158
CZ-2C R/B               
1 60090U 24116C   24195.39092480  .00533466 -75800-5  75326-3 0  9994
2 60090  28.0436 215.1934 0225513 269.0792  88.3963 15.71342722  3215
STARLINK-31441          
1 60091U 24117A   24195.58334491 -.00695166  00000+0 -46733-2 0  9998
2 60091  53.1470 327.4281 0001289  64.0138 339.9983 15.76378728  4111
STARLINK-32044          
1 60092U 24117B   24195.58334491 -.00700858  00000+0 -47252-2 0  9991
2 60092  53.1467 327.4234 0000965  76.0686 330.3275 15.76331288  4161
STARLINK-31239          
1 60093U 24117C   24195.58334491 -.00701038  00000+0 -47391-2 0  9997
2 60093  53.1465 327.4172 0001021  49.4445 359.4073 15.76270979  4316
STARLINK-32007          
1 60094U 24117D   24195.58334491 -.00707399  00000+0 -47971-2 0  9998
2 60094  53.1470 327.4138 0000892  66.2478 345.0094 15.76218415  4167
STARLINK-32028          
1 60095U 24117E   24195.58334491 -.00712042  00000+0 -48352-2 0  9994
2 60095  53.1470 327.4089 0001373  76.8734 336.5155 15.76196435  4317
STARLINK-32016          
1 60096U 24117F   24195.91667824 -.00691861  00000+0 -48060-2 0  9992
2 60096  53.1466 325.7452 0001073  48.9444  99.1022 15.75631587  4320
STARLINK-32003          
1 60097U 24117G   24195.58334491 -.00721384  00000+0 -49351-2 0  9995
2 60097  53.1472 327.3988 0001202  63.4347 354.9660 15.76055587  4318
STARLINK-32026          
1 60098U 24117H   24195.58334491 -.00730541  00000+0 -50268-2 0  9990
2 60098  53.1473 327.3884 0001348  70.2476 352.8385 15.75948212  4119
STARLINK-31732          
1 60099U 24117J   24195.58334491 -.00726870  00000+0 -49886-2 0  9995
2 60099  53.1473 327.3938 0001354  72.4247 348.3676 15.75996776  4310
STARLINK-31996          
1 60100U 24117K   24195.91667824 -.00708273  00000+0 -49815-2 0  9993
2 60100  53.1469 325.7267 0001094  57.0255 100.1817 15.75394011  4241
STARLINK-31999          
1 60101U 24117L   24195.91667824 -.00710753  00000+0 -50103-2 0  9992
2 60101  53.1469 325.7223 0001378  61.2192  98.1787 15.75346997  4349
STARLINK-31954          
1 60102U 24117M   24195.91667824 -.00717164  00000+0 -50774-2 0  9990
2 60102  53.1472 325.7173 0001397  67.2997  94.4631 15.75265978  4142
STARLINK-32013          
1 60103U 24117N   24195.91667824 -.00720213  00000+0 -51096-2 0  9998
2 60103  53.1475 325.7137 0001341  58.3137 105.5718 15.75227427  4341
STARLINK-32009          
1 60104U 24117P   24195.91667824 -.00767650  00000+0 -47891-2 0  9993
2 60104  53.1460 325.2786 0000765  66.9074 306.9882 15.78239571  4418
STARLINK-32018          
1 60105U 24117Q   24195.91667824 -.00737316  00000+0 -52909-2 0  9996
2 60105  53.1474 325.6993 0000849  55.7282 114.9291 15.75018205  4415
STARLINK-32045          
1 60106U 24117R   24195.91667824 -.00731274  00000+0 -52267-2 0  9991
2 60106  53.1474 325.7048 0001290  64.1522 104.2597 15.75089068  4191
STARLINK-32035          
1 60107U 24117S   24195.91667824 -.00744014  00000+0 -53646-2 0  9990
2 60107  53.1476 325.6950 0000842  54.2319 118.7398 15.74927396  4341
STARLINK-32042          
1 60108U 24117T   24195.91667824 -.00750285  00000+0 -54400-2 0  9997
2 60108  53.1475 325.6858 0001011  59.6147 117.6353 15.74816351  4308
STARLINK-32040          
1 60109U 24117U   24195.91667824 -.00745435  00000+0 -53854-2 0  9991
2 60109  53.1478 325.6914 0001213  61.8443 113.2206 15.74883730  4341
STARLINK-32001          
1 60110U 24117V   24195.83334491 -.00711049  00000+0 -51275-2 0  9994
2 60110  53.1480 326.0956 0001263  54.2961  12.5134 15.74831614  4326
STARLINK-32015          
1 60111U 24117W   24195.91667824 -.00761294  00000+0 -55644-2 0  9994
2 60111  53.1477 325.6766 0000998  59.5390 122.1044 15.74662922  4237
STARLINK-32024          
1 60112U 24117X   24195.91667824 -.00765257  00000+0 -56069-2 0  9990
2 60112  53.1476 325.6718 0001143  54.8329 128.8804 15.74617419  4358
STARLINK-11201 [DTC]    
1 60113U 24118A   24195.63770823  .01286111  00000+0  69017-2 0  9998
2 60113  53.1648 321.7168 0001360 112.2657 247.8509 15.77176750  3972
STARLINK-11198 [DTC]    
1 60114U 24118B   24195.63559173  .00266634  00000+0  15746-2 0  9999
2 60114  53.1661 321.7025 0000782 128.0888 232.0203 15.76842374  3965
STARLINK-11112 [DTC]    
1 60115U 24118C   24195.69591141  .00476752  00000+0  27320-2 0  9992
2 60115  53.1640 321.3660 0002129 325.1152  34.9730 15.76933640  4192
STARLINK-11210 [DTC]    
1 60116U 24118D   24195.56426117  .00618165  00000+0  34816-2 0  9993
2 60116  53.1640 321.9639 0001304 346.4126  13.6860 15.76933736  3953
STARLINK-11203 [DTC]    
1 60117U 24118E   24194.92554407  .00161365  00000+0  95422-3 0  9993
2 60117  53.1648 325.0891 0003053  16.8046 343.3076 15.77127275  4013
STARLINK-11177 [DTC]    
1 60118U 24118F   24195.87144676  .00655487  00000+0  36654-2 0  9996
2 60118  53.1648 320.3207 0003144   7.1353 352.9712 15.76997474  4173
STARLINK-11127 [DTC]    
1 60119U 24118G   24195.73975933  .00176552  00000+0  10449-2 0  9995
2 60119  53.1654 320.9197 0001629  44.9854 315.1299 15.77062875  3984
STARLINK-11164 [DTC]    
1 60120U 24118H   24195.29120076 -.00191396  00000+0 -11990-2 0  9995
2 60120  53.1658 323.0963 0001125  90.8220 269.2930 15.76594329  3033
STARLINK-11119 [DTC]    
1 60121U 24118J   24195.83334491  .00078263  00000+0  48001-3 0  9993
2 60121  53.1652 320.2838 0001459 108.9044 145.9125 15.76623180  4162
STARLINK-11157 [DTC]    
1 60122U 24118K   24195.83334491  .00161428  00000+0  97647-3 0  9990
2 60122  53.1661 320.3407 0000821  61.1256 165.8927 15.76617560  3900
STARLINK-11162 [DTC]    
1 60123U 24118L   24195.58334491  .00104070  00000+0  63276-3 0  9994
2 60123  53.1657 321.4714 0001453 164.9985 137.4687 15.76704787  3829
STARLINK-11161 [DTC]    
1 60124U 24118M   24195.83334491  .00200761  00000+0  12091-2 0  9995
2 60124  53.1655 320.1700 0001476  72.9167 237.1471 15.76593089  4162
STARLINK-11160 [DTC]    
1 60125U 24118N   24195.83334491 -.00811955  00000+0 -53144-2 0  9995
2 60125  53.1657 320.1131 0000916 106.8995 230.8578 15.77292089  4229
STARLINK-31846          
1 60126U 24118P   24195.83334491 -.01696472  00000+0 -25558-1 0  9999
2 60126  53.1593 320.9316 0000846  63.9041 225.3227 15.57221048  4213
STARLINK-31840          
1 60127U 24118Q   24195.58334491 -.01761309  00000+0 -25692-1 0  9993
2 60127  53.1591 322.1363 0000889  68.4721 259.9357 15.58189971  4137
STARLINK-31813          
1 60128U 24118R   24195.58334491 -.01759278  00000+0 -25659-1 0  9999
2 60128  53.1590 322.1318 0000985  70.9333 259.3908 15.58188909  4148
